{"type": "FeatureCollection", "features": [ {"type": "Feature", "properties": {"norad_id": 42917, "name": "QZS-3 (QZSS/PRN 199)", "group": "gnss", "lat": -0.002133247200779604, "lon": 62.93445614121991, "alt_km": 35794.40984647542, "timestamp": "2025-12-07T14:37:05.448077+00:00", "meta": {"OBJECT_NAME": "QZS-3 (QZSS/PRN 199)", "OBJECT_ID": "2017-048A", "EPOCH": "2025-12-06T20:31:38.555040", "MEAN_MOTION": 1.0027439, "ECCENTRICITY": 0.00022186, "INCLINATION": 0.068, "RA_OF_ASC_NODE": 213.2196, "ARG_OF_PERICENTER": 47.576, "MEAN_ANOMALY": 250.0268, "EPHEMERIS_TYPE": 0, "CLASSIFICATION_TYPE": "U", "NORAD_CAT_ID": 42917, "ELEMENT_SET_NO": 999, "REV_AT_EPOCH": 3033, "BSTAR": 0, "MEAN_MOTION_DOT": -3.42e-06, "MEAN_MOTION_DDOT": 0}, "tle": {"line1": "1 42917U 17048A   25340.85530735 -.00000342  00000+0  00000+0 0  9991", "line2": "2 42917   0.0680 213.2196 0002218  47.5760 250.0268  1.00274390 30333"}}, "geometry": {"type": "Point", "coordinates": [62.93445614121991, -0.002133247200779604]}}, {"type": "Feature", "properties": {"norad_id": 42939, "name": "COSMOS 2522 (752)", "group": "gnss", "lat": -37.930432514374345, "lon": 176.1296637448573, "alt_km": 19134.94231105076, "timestamp": "2025-12-07T14:37:05.448090+00:00", "meta": {"OBJECT_NAME": "COSMOS 2522 (752)", "OBJECT_ID": "2017-055A", "EPOCH": "2025-12-02T23:20:47.282208", "MEAN_MOTION": 2.1310185, "ECCENTRICITY": 0.00065327, "INCLINATION": 64.0758, "RA_OF_ASC_NODE": 198.5618, "ARG_OF_PERICENTER": 226.0683, "MEAN_ANOMALY": 133.9743, "EPHEMERIS_TYPE": 0, "CLASSIFICATION_TYPE": "U", "NORAD_CAT_ID": 42939, "ELEMENT_SET_NO": 999, "REV_AT_EPOCH": 6379, "BSTAR": 0, "MEAN_MOTION_DOT": 1.07e-06, "MEAN_MOTION_DDOT": 0}, "tle": {"line1": "1 42939U 17055A   25336.97276947  .00000107  00000+0  00000+0 0  9991", "line2": "2 42939  64.0758 198.5618 0006532 226.0683 133.9743  2.13101850 63796"}}, "geometry": {"type": "Point", "coordinates": [176.1296637448573, -37.930432514374345]}}, {"type": "Feature", "properties": {"norad_id": 42965, "name": "QZS-4 (QZSS/PRN 195)", "group": "gnss", "lat": 40.160820600157386, "lon": 72.5517826239913, "alt_km": 38966.904821666874, "timestamp": "2025-12-07T14:37:05.448104+00:00", "meta": {"OBJECT_NAME": "QZS-4 (QZSS/PRN 195)", "OBJECT_ID": "2017-062A", "EPOCH": "2025-12-06T21:07:43.800384", "MEAN_MOTION": 1.00253739, "ECCENTRICITY": 0.07524502, "INCLINATION": 40.2288, "RA_OF_ASC_NODE": 345.9456, "ARG_OF_PERICENTER": 271.3923, "MEAN_ANOMALY": 272.3694, "EPHEMERIS_TYPE": 0, "CLASSIFICATION_TYPE": "U", "NORAD_CAT_ID": 42965, "ELEMENT_SET_NO": 999, "REV_AT_EPOCH": 2987, "BSTAR": 0, "MEAN_MOTION_DOT": -3.44e-06, "MEAN_MOTION_DDOT": 0}, "tle": {"line1": "1 42965U 17062A   25340.88036806 -.00000344  00000+0  00000+0 0  9995", "line2": "2 42965  40.2288 345.9456 0752450 271.3923 272.3694  1.00253739 29877"}}, "geometry": {"type": "Point", "coordinates": [72.5517826239913, 40.160820600157386]}}, {"type": "Feature", "properties": {"norad_id": 43001, "name": "BEIDOU-3 M1 (C19)", "group": "gnss", "lat": 50.016136163740214, "lon": -162.57505119351387, "alt_km": 21546.824253537976, "timestamp": "2025-12-07T14:37:05.448116+00:00", "meta": {"OBJECT_NAME": "BEIDOU-3 M1 (C19)", "OBJECT_ID": "2017-069A", "EPOCH": "2025-12-06T08:47:12.602112", "MEAN_MOTION": 1.86230764, "ECCENTRICITY": 0.00089894, "INCLINATION": 56.5217, "RA_OF_ASC_NODE": 69.4444, "ARG_OF_PERICENTER": 303.7678, "MEAN_ANOMALY": 56.1608, "EPHEMERIS_TYPE": 0, "CLASSIFICATION_TYPE": "U", "NORAD_CAT_ID": 43001, "ELEMENT_SET_NO": 999, "REV_AT_EPOCH": 5501, "BSTAR": 0, "MEAN_MOTION_DOT": -4.5e-07, "MEAN_MOTION_DDOT": 0}, "tle": {"line1": "1 43001U 17069A   25340.36611808 -.00000045  00000+0  00000+0 0  9996", "line2": "2 43001  56.5217  69.4444 0008989 303.7678  56.1608  1.86230764 55019"}}, "geometry": {"type": "Point", "coordinates": [-162.57505119351387, 50.016136163740214]}}, {"type": "Feature", "properties": {"norad_id": 43002, "name": "BEIDOU-3 M2 (C20)", "group": "gnss", "lat": 20.901587944301323, "lon": -125.16676240601905, "alt_km": 21543.14981385625, "timestamp": "2025-12-07T14:37:05.448130+00:00", "meta": {"OBJECT_NAME": "BEIDOU-3 M2 (C20)", "OBJECT_ID": "2017-069B", "EPOCH": "2025-12-06T07:18:26.076672", "MEAN_MOTION": 1.8623066, "ECCENTRICITY": 0.00062871, "INCLINATION": 56.5209, "RA_OF_ASC_NODE": 69.4828, "ARG_OF_PERICENTER": 331.4917, "MEAN_ANOMALY": 28.4877, "EPHEMERIS_TYPE": 0, "CLASSIFICATION_TYPE": "U", "NORAD_CAT_ID": 43002, "ELEMENT_SET_NO": 999, "REV_AT_EPOCH": 5500, "BSTAR": 0, "MEAN_MOTION_DOT": -4.6e-07, "MEAN_MOTION_DDOT": 0}, "tle": {"line1": "1 43002U 17069B   25340.30446848 -.00000046  00000+0  00000+0 0  9992", "line2": "2 43002  56.5209  69.4828 0006287 331.4917  28.4877  1.86230660 55004"}}, "geometry": {"type": "Point", "coordinates": [-125.16676240601905, 20.901587944301323]}}, {"type": "Feature", "properties": {"norad_id": 43055, "name": "GSAT0215 (GALILEO 19)", "group": "gnss", "lat": -49.99845281998668, "lon": 102.88067579224843, "alt_km": 23216.134411695817, "timestamp": "2025-12-07T14:37:05.448141+00:00", "meta": {"OBJECT_NAME": "GSAT0215 (GALILEO 19)", "OBJECT_ID": "2017-079A", "EPOCH": "2025-12-06T00:43:24.455424", "MEAN_MOTION": 1.70473755, "ECCENTRICITY": 0.00048437, "INCLINATION": 55.1369, "RA_OF_ASC_NODE": 226.8228, "ARG_OF_PERICENTER": 284.5496, "MEAN_ANOMALY": 75.4946, "EPHEMERIS_TYPE": 0, "CLASSIFICATION_TYPE": "U", "NORAD_CAT_ID": 43055, "ELEMENT_SET_NO": 999, "REV_AT_EPOCH": 4969, "BSTAR": 0, "MEAN_MOTION_DOT": 3.4e-07, "MEAN_MOTION_DDOT": 0}, "tle": {"line1": "1 43055U 17079A   25340.03014416  .00000034  00000+0  00000+0 0  9999", "line2": "2 43055  55.1369 226.8228 0004843 284.5496  75.4946  1.70473755 49697"}}, "geometry": {"type": "Point", "coordinates": [102.88067579224843, -49.99845281998668]}}, {"type": "Feature", "properties": {"norad_id": 43056, "name": "GSAT0216 (GALILEO 20)", "group": "gnss", "lat": 50.538373788466366, "lon": -75.4185129192456, "alt_km": 23219.794133404426, "timestamp": "2025-12-07T14:37:05.448155+00:00", "meta": {"OBJECT_NAME": "GSAT0216 (GALILEO 20)", "OBJECT_ID": "2017-079B", "EPOCH": "2025-12-03T23:24:20.577888", "MEAN_MOTION": 1.70473886, "ECCENTRICITY": 0.0002683, "INCLINATION": 55.1334, "RA_OF_ASC_NODE": 226.8793, "ARG_OF_PERICENTER": 313.43, "MEAN_ANOMALY": 46.6407, "EPHEMERIS_TYPE": 0, "CLASSIFICATION_TYPE": "U", "NORAD_CAT_ID": 43056, "ELEMENT_SET_NO": 999, "REV_AT_EPOCH": 4967, "BSTAR": 0, "MEAN_MOTION_DOT": 4.1e-07, "MEAN_MOTION_DDOT": 0}, "tle": {"line1": "1 43056U 17079B   25337.97523817  .00000041  00000+0  00000+0 0  9997", "line2": "2 43056  55.1334 226.8793 0002683 313.4300  46.6407  1.70473886 49678"}}, "geometry": {"type": "Point", "coordinates": [-75.4185129192456, 50.538373788466366]}}, {"type": "Feature", "properties": {"norad_id": 43057, "name": "GSAT0217 (GALILEO 21)", "group": "gnss", "lat": -48.19898892946498, "lon": 175.6109813144045, "alt_km": 23221.978597040146, "timestamp": "2025-12-07T14:37:05.448166+00:00", "meta": {"OBJECT_NAME": "GSAT0217 (GALILEO 21)", "OBJECT_ID": "2017-079C", "EPOCH": "2025-12-05T22:56:13.502976", "MEAN_MOTION": 1.70473847, "ECCENTRICITY": 0.00027948, "INCLINATION": 55.1308, "RA_OF_ASC_NODE": 226.8227, "ARG_OF_PERICENTER": 341.4584, "MEAN_ANOMALY": 18.6294, "EPHEMERIS_TYPE": 0, "CLASSIFICATION_TYPE": "U", "NORAD_CAT_ID": 43057, "ELEMENT_SET_NO": 999, "REV_AT_EPOCH": 4969, "BSTAR": 0, "MEAN_MOTION_DOT": 3.5e-07, "MEAN_MOTION_DDOT": 0}, "tle": {"line1": "1 43057U 17079C   25339.95571184  .00000035  00000+0  00000+0 0  9991", "line2": "2 43057  55.1308 226.8227 0002794 341.4584  18.6294  1.70473847 49692"}}, "geometry": {"type": "Point", "coordinates": [175.6109813144045, -48.19898892946498]}}, {"type": "Feature", "properties": {"norad_id": 43058, "name": "GSAT0218 (GALILEO 22)", "group": "gnss", "lat": 16.563438188593747, "lon": 34.82728764109195, "alt_km": 23227.30265826281, "timestamp": "2025-12-07T14:37:05.448177+00:00", "meta": {"OBJECT_NAME": "GSAT0218 (GALILEO 22)", "OBJECT_ID": "2017-079D", "EPOCH": "2025-12-03T05:49:40.297728", "MEAN_MOTION": 1.70473824, "ECCENTRICITY": 0.00029171, "INCLINATION": 55.1321, "RA_OF_ASC_NODE": 226.8951, "ARG_OF_PERICENTER": 304.1404, "MEAN_ANOMALY": 55.9211, "EPHEMERIS_TYPE": 0, "CLASSIFICATION_TYPE": "U", "NORAD_CAT_ID": 43058, "ELEMENT_SET_NO": 999, "REV_AT_EPOCH": 4967, "BSTAR": 0, "MEAN_MOTION_DOT": 3.9e-07, "MEAN_MOTION_DDOT": 0}, "tle": {"line1": "1 43058U 17079D   25337.24282752  .00000039  00000+0  00000+0 0  9996", "line2": "2 43058  55.1321 226.8951 0002917 304.1404  55.9211  1.70473824 49672"}}, "geometry": {"type": "Point", "coordinates": [34.82728764109195, 16.563438188593747]}}, {"type": "Feature", "properties": {"norad_id": 43107, "name": "BEIDOU-3 M7 (C27)", "group": "gnss", "lat": -26.38308194841205, "lon": -71.74812510018334, "alt_km": 21533.027605754374, "timestamp": "2025-12-07T14:37:05.448188+00:00", "meta": {"OBJECT_NAME": "BEIDOU-3 M7 (C27)", "OBJECT_ID": "2018-003A", "EPOCH": "2025-12-05T12:15:18.978048", "MEAN_MOTION": 1.86232243, "ECCENTRICITY": 0.00026626, "INCLINATION": 54.5032, "RA_OF_ASC_NODE": 309.0664, "ARG_OF_PERICENTER": 69.7812, "MEAN_ANOMALY": 290.2304, "EPHEMERIS_TYPE": 0, "CLASSIFICATION_TYPE": "U", "NORAD_CAT_ID": 43107, "ELEMENT_SET_NO": 999, "REV_AT_EPOCH": 5374, "BSTAR": 0, "MEAN_MOTION_DOT": -7.1e-07, "MEAN_MOTION_DDOT": 0}, "tle": {"line1": "1 43107U 18003A   25339.51063632 -.00000071  00000+0  00000+0 0  9992", "line2": "2 43107  54.5032 309.0664 0002662  69.7812 290.2304  1.86232243 53743"}}, "geometry": {"type": "Point", "coordinates": [-71.74812510018334, -26.38308194841205]}}]}